{
  "type": "FeatureCollection",
  "features": [
    {
      "type": "Feature",
      "properties": {
        "norad_id": 40115,
        "name": "WORLDVIEW-3 (WV-3)",
        "group": "resource",
        "lat": -58.16177811266464,
        "lon": -142.80599240246272,
        "alt_km": 616.5548682329472,
        "timestamp": "2025-12-03T15:48:02.758795+00:00",
        "meta_object_name": "WORLDVIEW-3 (WV-3)",
        "meta_object_id": "2014-048A",
        "meta_epoch": "2025-12-03T08:15:41.487552",
        "meta_mean_motion": 14.85472756,
        "meta_eccentricity": 0.00040878,
        "meta_inclination": 97.8626,
        "meta_ra_of_asc_node": 49.7424,
        "meta_arg_of_pericenter": 218.6999,
        "meta_mean_anomaly": 141.3923,
        "meta_ephemeris_type": 0,
        "meta_classification_type": "U",
        "meta_norad_cat_id": 40115,
        "meta_element_set_no": 999,
        "meta_rev_at_epoch": 61284,
        "meta_bstar": 0.00021301492,
        "meta_mean_motion_dot": 1.784e-05,
        "meta_mean_motion_ddot": 0,
        "tle_line1": "1 40115U 14048A   25337.34423018  .00001784  00000+0  21301-3 0  9992",
        "tle_line2": "2 40115  97.8626  49.7424 0004087 218.6999 141.3923 14.85472756612847"
      },
      "geometry": {
        "type": "Point",
        "coordinates": [
          -142.80599240246272,
          -58.16177811266464
        ]
      }
    },
    {
      "type": "Feature",
      "properties": {
        "norad_id": 40118,
        "name": "GAOFEN-2",
        "group": "resource",
        "lat": -35.9025553524263,
        "lon": -149.062558644315,
        "alt_km": 632.5388190904769,
        "timestamp": "2025-12-03T15:48:02.758805+00:00",
        "meta_object_name": "GAOFEN-2",
        "meta_object_id": "2014-049A",
        "meta_epoch": "2025-12-03T08:20:23.938656",
        "meta_mean_motion": 14.8058119,
        "meta_eccentricity": 0.00081979,
        "meta_inclination": 98.0399,
        "meta_ra_of_asc_node": 36.4992,
        "meta_arg_of_pericenter": 140.0107,
        "meta_mean_anomaly": 220.171,
        "meta_ephemeris_type": 0,
        "meta_classification_type": "U",
        "meta_norad_cat_id": 40118,
        "meta_element_set_no": 999,
        "meta_rev_at_epoch": 61025,
        "meta_bstar": 0.00015952218,
        "meta_mean_motion_dot": 1.17e-05,
        "meta_mean_motion_ddot": 0,
        "tle_line1": "1 40118U 14049A   25337.34749929  .00001170  00000+0  15952-3 0  9992",
        "tle_line2": "2 40118  98.0399  36.4992 0008197 140.0107 220.1710 14.80581190610259"
      },
      "geometry": {
        "type": "Point",
        "coordinates": [
          -149.062558644315,
          -35.9025553524263
        ]
      }
    },
    {
      "type": "Feature",
      "properties": {
        "norad_id": 40143,
        "name": "YAOGAN-21",
        "group": "resource",
        "lat": -36.4125751620155,
        "lon": -163.96635644988385,
        "alt_km": 507.6591891726639,
        "timestamp": "2025-12-03T15:48:02.758814+00:00",
        "meta_object_name": "YAOGAN-21",
        "meta_object_id": "2014-053A",
        "meta_epoch": "2025-12-03T08:32:53.030112",
        "meta_mean_motion": 15.23486624,
        "meta_eccentricity": 0.00102304,
        "meta_inclination": 97.1775,
        "meta_ra_of_asc_node": 21.078,
        "meta_arg_of_pericenter": 70.2092,
        "meta_mean_anomaly": 290.0248,
        "meta_ephemeris_type": 0,
        "meta_classification_type": "U",
        "meta_norad_cat_id": 40143,
        "meta_element_set_no": 999,
        "meta_rev_at_epoch": 62511,
        "meta_bstar": 0.0004793308,
        "meta_mean_motion_dot": 0.00011391,
        "meta_mean_motion_ddot": 0,
        "tle_line1": "1 40143U 14053A   25337.35616933  .00011391  00000+0  47933-3 0  9994",
        "tle_line2": "2 40143  97.1775  21.0780 0010230  70.2092 290.0248 15.23486624625115"
      },
      "geometry": {
        "type": "Point",
        "coordinates": [
          -163.96635644988385,
          -36.4125751620155
        ]
      }
    },
    {
      "type": "Feature",
      "properties": {
        "norad_id": 40275,
        "name": "YAOGAN-22",
        "group": "resource",
        "lat": 2.281300141320439,
        "lon": 120.51646885720197,
        "alt_km": 1204.441768671768,
        "timestamp": "2025-12-03T15:48:02.758824+00:00",
        "meta_object_name": "YAOGAN-22",
        "meta_object_id": "2014-063A",
        "meta_epoch": "2025-12-03T08:29:16.965312",
        "meta_mean_motion": 13.15522307,
        "meta_eccentricity": 0.0005877,
        "meta_inclination": 100.7418,
        "meta_ra_of_asc_node": 120.6409,
        "meta_arg_of_pericenter": 270.8741,
        "meta_mean_anomaly": 89.1697,
        "meta_ephemeris_type": 0,
        "meta_classification_type": "U",
        "meta_norad_cat_id": 40275,
        "meta_element_set_no": 999,
        "meta_rev_at_epoch": 53406,
        "meta_bstar": 0.00015567206,
        "meta_mean_motion_dot": 1.2e-07,
        "meta_mean_motion_ddot": 0,
        "tle_line1": "1 40275U 14063A   25337.35366858  .00000012  00000+0  15567-3 0  9995",
        "tle_line2": "2 40275 100.7418 120.6409 0005877 270.8741  89.1697 13.15522307534066"
      },
      "geometry": {
        "type": "Point",
        "coordinates": [
          120.51646885720197,
          2.281300141320439
        ]
      }
    },
    {
      "type": "Feature",
      "properties": {
        "norad_id": 40298,
        "name": "ASNARO",
        "group": "resource",
        "lat": 42.2786544504699,
        "lon": 47.073262854230016,
        "alt_km": 505.8587652981014,
        "timestamp": "2025-12-03T15:48:02.758833+00:00",
        "meta_object_name": "ASNARO",
        "meta_object_id": "2014-070A",
        "meta_epoch": "2025-12-03T07:42:33.094368",
        "meta_mean_motion": 15.19172485,
        "meta_eccentricity": 0.00051287,
        "meta_inclination": 97.367,
        "meta_ra_of_asc_node": 53.5004,
        "meta_arg_of_pericenter": 149.3051,
        "meta_mean_anomaly": 210.8485,
        "meta_ephemeris_type": 0,
        "meta_classification_type": "U",
        "meta_norad_cat_id": 40298,
        "meta_element_set_no": 999,
        "meta_rev_at_epoch": 61426,
        "meta_bstar": 0.00064873208,
        "meta_mean_motion_dot": 0.00013594,
        "meta_mean_motion_ddot": 0,
        "tle_line1": "1 40298U 14070A   25337.32121637  .00013594  00000+0  64873-3 0  9992",
        "tle_line2": "2 40298  97.3670  53.5004 0005128 149.3051 210.8485 15.19172485614263"
      },
      "geometry": {
        "type": "Point",
        "coordinates": [
          47.073262854230016,
          42.2786544504699
        ]
      }
    },
    {
      "type": "Feature",
      "properties": {
        "norad_id": 40310,
        "name": "YAOGAN-24",
        "group": "resource",
        "lat": -15.428228276496707,
        "lon": 110.96225743803471,
        "alt_km": 656.2945529064873,
        "timestamp": "2025-12-03T15:48:02.758842+00:00",
        "meta_object_name": "YAOGAN-24",
        "meta_object_id": "2014-072A",
        "meta_epoch": "2025-12-03T07:44:13.958592",
        "meta_mean_motion": 14.76144087,
        "meta_eccentricity": 0.00142455,
        "meta_inclination": 98.1217,
        "meta_ra_of_asc_node": 108.366,
        "meta_arg_of_pericenter": 167.2372,
        "meta_mean_anomaly": 192.9201,
        "meta_ephemeris_type": 0,
        "meta_classification_type": "U",
        "meta_norad_cat_id": 40310,
        "meta_element_set_no": 999,
        "meta_rev_at_epoch": 59482,
        "meta_bstar": 0.00022487554,
        "meta_mean_motion_dot": 1.503e-05,
        "meta_mean_motion_ddot": 0,
        "tle_line1": "1 40310U 14072A   25337.32238378  .00001503  00000+0  22488-3 0  9993",
        "tle_line2": "2 40310  98.1217 108.3660 0014245 167.2372 192.9201 14.76144087594820"
      },
      "geometry": {
        "type": "Point",
        "coordinates": [
          110.96225743803471,
          -15.428228276496707
        ]
      }
    },
    {
      "type": "Feature",
      "properties": {
        "norad_id": 40336,
        "name": "CBERS 4",
        "group": "resource",
        "lat": -27.89801944545444,
        "lon": 40.435515997094264,
        "alt_km": 780.0232204461054,
        "timestamp": "2025-12-03T15:48:02.758852+00:00",
        "meta_object_name": "CBERS 4",
        "meta_object_id": "2014-079A",
        "meta_epoch": "2025-12-03T09:14:26.443392",
        "meta_mean_motion": 14.35528186,
        "meta_eccentricity": 0.00014552,
        "meta_inclination": 98.3322,
        "meta_ra_of_asc_node": 35.7215,
        "meta_arg_of_pericenter": 126.8022,
        "meta_mean_anomaly": 233.3298,
        "meta_ephemeris_type": 0,
        "meta_classification_type": "U",
        "meta_norad_cat_id": 40336,
        "meta_element_set_no": 999,
        "meta_rev_at_epoch": 57586,
        "meta_bstar": 0.00010367358,
        "meta_mean_motion_dot": 2.56e-06,
        "meta_mean_motion_ddot": 0,
        "tle_line1": "1 40336U 14079A   25337.38502828  .00000256  00000+0  10367-3 0  9995",
        "tle_line2": "2 40336  98.3322  35.7215 0001455 126.8022 233.3298 14.35528186575868"
      },
      "geometry": {
        "type": "Point",
        "coordinates": [
          40.435515997094264,
          -27.89801944545444
        ]
      }
    }
  ]
}